NORAD_CAT_ID,OBJECT_NAME,OBJECT_TYPE,EPOCH,MEAN_MOTION,ECCENTRICITY,INCLINATION,RA_OF_ASC_NODE,ARG_OF_PERICENTER,MEAN_ANOMALY,BSTAR,MEAN_MOTION_DOT,MEAN_MOTION_DDOT,TLE_LINE0,TLE_LINE1,TLE_LINE2,SEMIMAJOR_AXIS,PERIOD,APOGEE,PERIGEE,DECAYED
49410.0,STARLINK-3147,PAYLOAD,2023-09-16 10:00:45,15.08867066,0.0001423,53.2174,333.0582,68.8602,291.2542,0.0014903,0.00023527,0.0,0 STARLINK-3147,1 49410U 21104C   23259.41719363  .00023527  00000-0  14903-2 0  9999,2 49410  53.2174 333.0582 0001423  68.8602 291.2542 15.08867066103057,6917.798,95.436,540.647,538.678,0.0
49410.0,STARLINK-3147,PAYLOAD,2023-09-16 11:36:08,15.08864796,0.0001471,53.2175,332.7611,67.2496,292.8651,0.0012239,0.00019257,0.0,0 STARLINK-3147,1 49410U 21104C   23259.48343283  .00019257  00000-0  12239-2 0  9995,2 49410  53.2175 332.7611 0001471  67.2496 292.8651 15.08864796101978,6917.805,95.436,540.687,538.652,0.0
49410.0,STARLINK-3147,PAYLOAD,2023-09-16 16:22:17,15.08870405,0.0001581,53.2176,331.8686,65.3272,294.7884,0.0011348,0.00017833,0.0,0 STARLINK-3147,1 49410U 21104C   23259.68214938  .00017833  00000-0  11348-2 0  9999,2 49410  53.2176 331.8686 0001581  65.3272 294.7884 15.08870405103092,6917.787,95.436,540.746,538.559,0.0
49410.0,STARLINK-3147,PAYLOAD,2023-09-17 09:51:32,15.08861666,0.0001498,53.2178,328.5962,85.899,274.2174,0.0010334,0.00016207,0.0,0 STARLINK-3147,1 49410U 21104C   23260.41078770  .00016207  00000-0  10334-2 0  9992,2 49410  53.2178 328.5962 0001498  85.8990 274.2174 15.08861666103202,6917.814,95.436,540.715,538.643,0.0
49410.0,STARLINK-3147,PAYLOAD,2023-09-17 11:26:55,15.08864598,0.0001513,53.2179,328.2997,75.871,284.2451,0.0011372,0.00017869,0.0,0 STARLINK-3147,1 49410U 21104C   23260.47702752  .00017869  00000-0  11372-2 0  9990,2 49410  53.2179 328.2997 0001513  75.8710 284.2451 15.08864598102121,6917.805,95.436,540.717,538.624,0.0
49410.0,STARLINK-3147,PAYLOAD,2023-09-18 09:42:18,15.08858288,0.0001492,53.2176,324.1365,82.6171,277.4991,0.0012645,0.00019904,0.0,0 STARLINK-3147,1 49410U 21104C   23261.40438397  .00019904  00000-0  12645-2 0  9991,2 49410  53.2176 324.1365 0001492  82.6171 277.4991 15.08858288103353,6917.824,95.436,540.722,538.657,0.0
49410.0,STARLINK-3147,PAYLOAD,2023-09-18 11:17:41,15.0886166,0.0001473,53.2176,323.8393,83.1824,276.9336,0.0014091,0.00022222,0.0,0 STARLINK-3147,1 49410U 21104C   23261.47062339  .00022222  00000-0  14091-2 0  9991,2 49410  53.2176 323.8393 0001473  83.1824 276.9336 15.08861660102275,6917.814,95.436,540.698,538.66,0.0
49410.0,STARLINK-3147,PAYLOAD,2023-09-18 20:50:00,15.08848536,9.47e-05,53.2177,322.0553,116.8715,243.2374,-5.2336e-05,-1.121e-05,0.0,0 STARLINK-3147,1 49410U 21104C   23261.86805973 -.00001121  00000-0 -52336-4 0  9996,2 49410  53.2177 322.0553 0000947 116.8715 243.2374 15.08848536102336,6917.854,95.437,540.374,539.064,0.0
49410.0,STARLINK-3147,PAYLOAD,2023-09-19 14:19:14,15.08872809,0.0001454,53.2168,318.7839,88.6698,271.446,0.0016625,0.00026294,0.0,0 STARLINK-3147,1 49410U 21104C   23262.59669407  .00026294  00000-0  16625-2 0  9992,2 49410  53.2168 318.7839 0001454  88.6698 271.4460 15.08872809103537,6917.78,95.435,540.651,538.639,0.0
49410.0,STARLINK-3147,PAYLOAD,2023-09-20 10:59:16,15.08819999,0.0001382,53.216,314.9189,118.3856,241.7276,0.00097299,0.00015223,0.0,0 STARLINK-3147,1 49410U 21104C   23263.45782887  .00015223  00000-0  97299-3 0  9993,2 49410  53.2160 314.9189 0001382 118.3856 241.7276 15.08819999103662,6917.942,95.439,540.763,538.85,0.0
49410.0,STARLINK-3147,PAYLOAD,2023-09-20 15:45:26,15.08817766,0.0001325,53.2158,314.0259,105.3184,254.7955,0.00060855,9.405e-05,0.0,0 STARLINK-3147,1 49410U 21104C   23263.65655296  .00009405  00000-0  60855-3 0  9991,2 49410  53.2158 314.0259 0001325 105.3184 254.7955 15.08817766102606,6917.948,95.439,540.73,538.897,0.0
49410.0,STARLINK-3147,PAYLOAD,2023-09-21 10:50:03,15.08849533,0.000133,53.2157,310.458,83.6672,276.4471,0.0010801,0.00016948,0.0,0 STARLINK-3147,1 49410U 21104C   23264.45143509  .00016948  00000-0  10801-2 0  9994,2 49410  53.2157 310.4580 0001330  83.6672 276.4471 15.08849533103813,6917.851,95.437,540.636,538.796,0.0
49410.0,STARLINK-3147,PAYLOAD,2023-09-21 20:22:22,15.08848028,8.16e-05,53.2169,308.6746,74.4694,285.6388,0.00023562,3.465e-05,0.0,0 STARLINK-3147,1 49410U 21104C   23264.84887313  .00003465  00000-0  23562-3 0  9994,2 49410  53.2169 308.6746 0000816  74.4694 285.6388 15.08848028102781,6917.856,95.437,540.285,539.156,0.0
49410.0,STARLINK-3147,PAYLOAD,2023-09-22 12:16:13,15.08859335,0.0001606,53.2165,305.6998,73.8959,286.221,0.0014324,0.00022594,0.0,0 STARLINK-3147,1 49410U 21104C   23265.51127229  .00022594  00000-0  14324-2 0  9991,2 49410  53.2165 305.6998 0001606  73.8959 286.2210 15.08859335102883,6917.821,95.436,540.797,538.575,0.0
49410.0,STARLINK-3147,PAYLOAD,2023-09-22 20:13:09,15.08845259,0.0001345,53.2164,304.2127,81.2288,278.8857,0.00040142,6.107e-05,0.0,0 STARLINK-3147,1 49410U 21104C   23265.84247282  .00006107  00000-0  40142-3 0  9999,2 49410  53.2164 304.2127 0001345  81.2288 278.8857 15.08845259102939,6917.864,95.437,540.66,538.799,0.0
49410.0,STARLINK-3147,PAYLOAD,2023-09-23 02:34:42,15.08838016,0.0001318,53.2176,303.0221,81.6446,278.4695,0.0006425,9.952e-05,0.0,0 STARLINK-3147,1 49410U 21104C   23266.10743312  .00009952  00000-0  64250-3 0  9991,2 49410  53.2176 303.0221 0001318  81.6446 278.4695 15.08838016104069,6917.886,95.438,540.663,538.84,0.0
49410.0,STARLINK-3147,PAYLOAD,2023-09-23 12:07:00,15.08859492,0.0001624,53.2166,301.2391,79.6138,280.5037,0.00084927,0.00013261,0.0,0 STARLINK-3147,1 49410U 21104C   23266.50486958  .00013261  00000-0  84927-3 0  9996,2 49410  53.2166 301.2391 0001624  79.6138 280.5037 15.08859492104123,6917.821,95.436,540.809,538.562,0.0
49410.0,STARLINK-3147,PAYLOAD,2023-09-24 08:47:01,15.08844529,0.0001735,53.2174,297.3708,103.6381,256.4804,0.00025833,3.826e-05,0.0,0 STARLINK-3147,1 49410U 21104C   23267.36599067  .00003826  00000-0  25833-3 0  9994,2 49410  53.2174 297.3708 0001735 103.6381 256.4804 15.08844529104253,6917.867,95.437,540.932,538.531,0.0
49410.0,STARLINK-3147,PAYLOAD,2023-09-24 13:33:10,15.08849366,0.0001709,53.2172,296.4795,94.0544,266.0644,0.0003739,5.669e-05,0.0,0 STARLINK-3147,1 49410U 21104C   23267.56470975  .00005669  00000-0  37390-3 0  9990,2 49410  53.2172 296.4795 0001709  94.0544 266.0644 15.08849366103197,6917.852,95.437,540.899,538.535,0.0
49410.0,STARLINK-3147,PAYLOAD,2023-09-25 02:16:16,15.08839408,0.0001694,53.216,294.1023,89.4465,270.6721,0.00010484,1.381e-05,0.0,0 STARLINK-3147,1 49410U 21104C   23268.09463340  .00001381  00000-0  10484-3 0  9999,2 49410  53.2160 294.1023 0001694  89.4465 270.6721 15.08839408104369,6917.882,95.438,540.919,538.575,0.0
49410.0,STARLINK-3147,PAYLOAD,2023-09-25 08:37:48,15.08849996,0.0001665,53.2171,292.9122,89.2309,270.8873,0.00036202,5.48e-05,0.0,0 STARLINK-3147,1 49410U 21104C   23268.35959115  .00005480  00000-0  36202-3 0  9998,2 49410  53.2171 292.9122 0001665  89.2309 270.8873 15.08849996103317,6917.85,95.437,540.867,538.563,0.0
49410.0,STARLINK-3147,PAYLOAD,2023-09-25 18:10:08,15.08833761,0.0002657,53.2173,291.1261,82.442,277.6873,1.2663e-05,-8.7e-07,0.0,0 STARLINK-3147,1 49410U 21104C   23268.75703855 -.00000087  00000-0  12663-4 0  9995,2 49410  53.2173 291.1261 0002657  82.4420 277.6873 15.08833761103379,6917.899,95.438,541.603,537.926,0.0
49410.0,STARLINK-3147,PAYLOAD,2023-09-26 00:31:40,15.08833446,0.0001672,53.2166,289.9401,93.2375,266.8808,-1.6996e-05,-5.58e-06,0.0,0 STARLINK-3147,1 49410U 21104C   23269.02199646 -.00000558  00000-0 -16996-4 0  9990,2 49410  53.2166 289.9401 0001672  93.2375 266.8808 15.08833446104501,6917.9,95.438,540.922,538.609,0.0
49410.0,STARLINK-3147,PAYLOAD,2023-09-26 08:28:36,15.0883589,0.0001671,53.2164,288.4538,93.8423,266.276,7.0528e-05,8.34e-06,0.0,0 STARLINK-3147,1 49410U 21104C   23269.35319713  .00000834  00000-0  70528-4 0  9991,2 49410  53.2164 288.4538 0001671  93.8423 266.2760 15.08835890103463,6917.893,95.438,540.914,538.602,0.0
49410.0,STARLINK-3147,PAYLOAD,2023-09-27 08:19:23,15.08844423,0.0001722,53.216,283.9932,99.3675,260.7512,0.00040138,6.106e-05,0.0,0 STARLINK-3147,1 49410U 21104C   23270.34679829  .00006106  00000-0  40138-3 0  9990,2 49410  53.2160 283.9932 0001722  99.3675 260.7512 15.08844423104708,6917.867,95.437,540.923,538.541,0.0
49410.0,STARLINK-3147,PAYLOAD,2023-09-27 11:30:09,15.08847892,0.0001744,53.2158,283.3982,101.0633,259.0555,0.0004525,6.922e-05,0.0,0 STARLINK-3147,1 49410U 21104C   23270.47927706  .00006922  00000-0  45250-3 0  9990,2 49410  53.2158 283.3982 0001744 101.0633 259.0555 15.08847892103635,6917.856,95.437,540.928,538.515,0.0
49410.0,STARLINK-3147,PAYLOAD,2023-09-28 09:45:34,15.08830763,0.0001728,53.2166,279.2288,87.6786,272.4404,0.000278,4.138e-05,0.0,0 STARLINK-3147,1 49410U 21104C   23271.40664719  .00004138  00000-0  27800-3 0  9994,2 49410  53.2166 279.2288 0001728  87.6786 272.4404 15.08830763104864,6917.909,95.438,540.969,538.578,0.0
49410.0,STARLINK-3147,PAYLOAD,2023-09-29 12:47:07,15.08846228,0.0001754,53.2169,274.1767,95.6217,264.4976,0.00014865,2.079e-05,0.0,0 STARLINK-3147,1 49410U 21104C   23272.53272093  .00002079  00000-0  14865-3 0  9998,2 49410  53.2169 274.1767 0001754  95.6217 264.4976 15.08846228103946,6917.861,95.437,540.94,538.513,0.0
49410.0,STARLINK-3147,PAYLOAD,2023-09-30 04:40:58,15.08847713,0.0001742,53.217,271.2029,94.313,265.8061,0.00019522,2.821e-05,0.0,0 STARLINK-3147,1 49410U 21104C   23273.19511978  .00002821  00000-0  19522-3 0  9999,2 49410  53.2170 271.2029 0001742  94.3130 265.8061 15.08847713104046,6917.857,95.437,540.927,538.517,0.0
49410.0,STARLINK-3147,PAYLOAD,2023-09-30 17:24:03,15.08843811,0.0001884,53.2169,268.8255,78.6785,281.4419,0.00011483,1.54e-05,0.0,0 STARLINK-3147,1 49410U 21104C   23273.72504229  .00001540  00000-0  11483-3 0  9994,2 49410  53.2169 268.8255 0001884  78.6785 281.4419 15.08843811105211,6917.869,95.437,541.037,538.43,0.0
